GPS BIIR-2  (PRN 13)    
1 24876U 97035A   22332.89388821  .00000082  00000+0  00000+0 0  9998
2 24876  55.5346 149.2563 0065098  53.3340 307.2816  2.00563545185958
GPS BIIR-4  (PRN 20)    
1 26360U 00025A   22333.70374611 -.00000041  00000+0  00000+0 0  9990
2 26360  54.1963  72.0510 0047495 190.0569 126.0599  2.00560712165288
GPS BIIR-6  (PRN 22)    
1 26605U 00071A   22333.43774003  .00000085  00000+0  00000+0 0  9999
2 26605  55.1217 146.1574 0137831 254.6141 352.7340  2.00553241161527
GPS BIIR-8  (PRN 16)    
1 27663U 03005A   22333.80231192 -.00000033  00000+0  00000+0 0  9996
2 27663  55.4061 266.4923 0129318  41.7072 321.2408  2.00554736145332
GPS BIIR-9  (PRN 21)    
1 27704U 03010A   22333.52479948 -.00000089  00000+0  00000+0 0  9991
2 27704  55.0730  16.6307 0247707 310.2271  68.8568  2.00563247144120
GPS BIIR-11 (PRN 19)    
1 28190U 04009A   22333.82257618 -.00000054  00000+0  00000+0 0  9993
2 28190  55.8987 327.5095 0088264 128.0399  43.9993  2.00556403136962
GPS BIIR-13 (PRN 02)    
1 28474U 04045A   22333.52341691 -.00000089  00000+0  00000+0 0  9998
2 28474  55.3979  16.8351 0202669 282.1053 246.2869  2.00561266132444
GPS BIIRM-1 (PRN 17)    
1 28874U 05038A   22333.78703885 -.00000051  00000+0  00000+0 0  9999
2 28874  55.9585 324.9517 0140851 276.6755 259.0607  2.00564658125852
GPS BIIRM-2 (PRN 31)    
1 29486U 06042A   22333.67081331  .00000032  00000+0  00000+0 0  9996
2 29486  54.6982 202.7105 0106320  25.8870 340.5138  2.00569413118413
GPS BIIRM-3 (PRN 12)    
1 29601U 06052A   22333.11278915 -.00000023  00000+0  00000+0 0  9992
2 29601  55.4184 265.4649 0084485  75.1233 285.8287  2.00559885117419
GPS BIIRM-4 (PRN 15)    
1 32260U 07047A   22333.41574980  .00000073  00000+0  00000+0 0  9990
2 32260  53.3637 133.7050 0145324  66.2760 295.2386  2.00566187110829
GPS BIIRM-5 (PRN 29)    
1 32384U 07062A   22333.46927956 -.00000050  00000+0  00000+0 0  9990
2 32384  56.0828 325.7472 0019749 146.9968  19.2401  2.00570713109523
GPS BIIRM-6 (PRN 07)    
1 32711U 08012A   22332.83349664  .00000036  00000+0  00000+0 0  9997
2 32711  54.4610 201.6412 0166461 232.3482 126.2122  2.00569847107757
GPS BIIRM-8 (PRN 05)    
1 35752U 09043A   22333.81843213 -.00000026  00000+0  00000+0 0  9998
2 35752  55.2030  78.8794 0056669  64.5167 299.2194  2.00575455 97389
GPS BIIF-1  (PRN 25)    
1 36585U 10022A   22333.43890611 -.00000027  00000+0  00000+0 0  9995
2 36585  54.7065 260.8566 0106772  56.9949 154.6661  2.00573803 91607
GPS BIIF-2  (PRN 01)    
1 37753U 11036A   22333.08666101 -.00000086  00000+0  00000+0 0  9990
2 37753  56.6695  22.3031 0118636  53.2117 345.4906  2.00566148 83283
GPS BIIF-3  (PRN 24)    
1 38833U 12053A   22333.51581695  .00000040  00000+0  00000+0 0  9991
2 38833  53.5183 196.5947 0133118  48.9165 312.3057  2.00563685 73458
GPS BIIF-4  (PRN 27)    
1 39166U 13023A   22333.37403242 -.00000048  00000+0  00000+0 0  9993
2 39166  55.5807 321.2760 0107054  38.1298 322.6298  2.00565088 69894
GPS BIIF-5  (PRN 30)    
1 39533U 14008A   22333.37722274  .00000032  00000+0  00000+0 0  9996
2 39533  53.6092 202.1248 0060540 209.0878 150.6538  2.00562691 63691
GPS BIIF-6  (PRN 06)    
1 39741U 14026A   22333.15747425 -.00000086  00000+0  00000+0 0  9998
2 39741  56.6283  21.8255 0028801 304.7322  55.0523  2.00576791 62543
GPS BIIF-7  (PRN 09)    
1 40105U 14045A   22333.24581942  .00000080  00000+0  00000+0 0  9998
2 40105  54.7314 140.2230 0024357 112.7898 247.4736  2.00558273 60084
GPS BIIF-8  (PRN 03)    
1 40294U 14068A   22333.11459767 -.00000015  00000+0  00000+0 0  9996
2 40294  55.9460  81.4397 0042304  58.5920 301.8169  2.00552733 59216
GPS BIIF-9  (PRN 26)    
1 40534U 15013A   22333.75363668 -.00000031  00000+0  00000+0 0  9996
2 40534  53.6059 257.8453 0074535  21.5559 338.7830  2.00571754 55846
GPS BIIF-10 (PRN 08)    
1 40730U 15033A   22332.91452887 -.00000047  00000+0  00000+0 0  9992
2 40730  55.0756 320.0441 0078403   8.0454 352.0840  2.00569409 53994
GPS BIIF-11 (PRN 10)    
1 41019U 15062A   22333.46509188 -.00000018  00000+0  00000+0 0  9991
2 41019  55.9331  81.2718 0083862 218.6152 140.7804  2.00562320 51844
GPS BIIF-12 (PRN 32)    
1 41328U 16007A   22333.05348862  .00000080  00000+0  00000+0 0  9997
2 41328  54.9443 140.9418 0064367 229.7779 129.6639  2.00562939 49842
GPS BIII-1  (PRN 04)    
1 43873U 18109A   22333.73172867  .00000086  00000+0  00000+0 0  9990
2 43873  55.1230 143.3695 0022124 187.4339 192.9667  2.00556283 29091
GPS BIII-2  (PRN 18)    
1 44506U 19056A   22333.77342969 -.00000091  00000+0  00000+0 0  9999
2 44506  55.7450  22.4823 0029773 185.0325 125.9623  2.00559239 24087
GPS BIII-3  (PRN 23)    
1 45854U 20041A   22333.54279181 -.00000022  00000+0  00000+0 0  9996
2 45854  55.6529  79.7614 0028999 181.8175 262.4378  2.00567709 18054
GPS BIII-4  (PRN 14)    
1 46826U 20078A   22333.78418878 -.00000033  00000+0  00000+0 0  9992
2 46826  54.4645 263.3844 0024539 190.6552  44.3961  2.00564924 15529
GPS BIII-5  (PRN 11)    
1 48859U 21054A   22333.63875630 -.00000091  00000+0  00000+0 0  9996
2 48859  55.2550  24.4065 0009028 211.0912 103.7776  2.00563670 10768
